GSAT0226 (GALILEO 31)   
1 61183U 24167B   26135.82743698  .00000023  00000+0  10000-3 0  9991
2 61183  55.1929 222.2092 0002353 208.9783 151.0705  1.70475447 10303
GSAT0233 (GALILEO 33)   
1 67160U 25302A   26135.67199747  .00000038  00000+0  00000+0 0  9998
2 67160  54.3160 103.0567 0001737 246.2381 114.9095  1.70474189  2571
GSAT0234 (GALILEO 34)   
1 67162U 25302C   26137.43565288  .00000025  00000+0  00000+0 0  9999
2 67162  54.3177 103.0056 0003677 300.8975 242.7550  1.70474094  2655
