OBJECT_NAME,OBJECT_ID,EPOCH,MEAN_MOTION,ECCENTRICITY,INCLINATION,RA_OF_ASC_NODE,ARG_OF_PERICENTER,MEAN_ANOMALY,EPHEMERIS_TYPE,CLASSIFICATION_TYPE,NORAD_CAT_ID,ELEMENT_SET_NO,REV_AT_EPOCH,BSTAR,MEAN_MOTION_DOT,MEAN_MOTION_DDOT
GSAT0226 (GALILEO 31),2024-167B,2026-05-15T19:51:30.555072,1.70475447,.0002353,55.1929,222.2092,208.9783,151.0705,0,U,61183,999,1030,.1E-3,.23E-6,0
GSAT0233 (GALILEO 33),2025-302A,2026-05-15T16:07:40.581408,1.70474189,.00017378,54.3160,103.0567,246.2381,114.9095,0,U,67160,999,257,0,.38E-6,0
GSAT0234 (GALILEO 34),2025-302C,2026-05-17T10:27:20.408832,1.70474094,.00036778,54.3177,103.0056,300.8975,242.7550,0,U,67162,999,265,0,.25E-6,0
